ONEWEB-0377             
1 49303U 21090AA  23249.03311040 -.00000003  00000+0 -38648-4 0  9990
2 49303  87.9186 116.5666 0001954  75.6082 284.5268 13.20769742 97796
ONEWEB-0378             
1 49304U 21090AB  23249.07202945  .00000061  00000+0  11768-3 0  9993
2 49304  87.9187 116.5528 0001463  86.2722 273.8579 13.20770218 97100
ONEWEB-0379             
1 49305U 21090AC  23248.09246656 -.00000201  00000+0 -57648-3 0  9997
2 49305  87.9017 131.9773 0001809  81.2981 278.8353 13.14504185 95375
ONEWEB-0380             
1 49306U 21090AD  23248.99824966  .00000077  00000+0  16031-3 0  9993
2 49306  87.9275 147.0068 0001870  71.8820 288.2516 13.19724064 93809
ONEWEB-0381             
1 49307U 21090AE  23248.86685235  .00000003  00000+0 -24237-4 0  9992
2 49307  87.9249 116.5345 0001769  75.2679 284.8650 13.20774070 97109
ONEWEB-0382             
1 49308U 21090AF  23248.55121473 -.00000061  00000+0 -18291-3 0  9995
2 49308  87.9188 116.6605 0001468  76.0877 284.0419 13.20772524 97069
ONEWEB-0383             
1 49309U 21090AG  23249.07565924 -.00000001  00000+0 -37865-4 0  9990
2 49309  87.9016 131.7636 0001652  84.4801 275.6517 13.14501915 95528
ONEWEB-0384             
1 49310U 21090AH  23248.62274835 -.00000053  00000+0 -16325-3 0  9994
2 49310  87.9187 116.6424 0001045  81.8073 278.3179 13.20769369 97087
